{
  "type": "FeatureCollection",
  "features": [
    {
      "type": "Feature",
      "properties": {
        "way_id": "543323180",
        "historical_levels": 20
      },
      "geometry": {
        "type": "Polygon",
        "coordinates": [
          [
            [
              126.9943471,
              37.5070453
            ],
            [
              126.9944592,
              37.507095
            ],
            [
              126.9943967,
              37.5071818
            ],
            [
              126.9944187,
              37.5071917
            ],
            [
              126.9943939,
              37.5072264
            ],
            [
              126.9944163,
              37.5072365
            ],
            [
              126.994361,
              37.5073136
            ],
            [
              126.9943018,
              37.5072869
            ],
            [
              126.9942928,
              37.5072995
            ],
            [
              126.994231,
              37.5072715
            ],
            [
              126.9942422,
              37.5072559
            ],
            [
              126.9942073,
              37.5072401
            ],
            [
              126.9943471,
              37.5070453
            ]
          ]
        ]
      }
    },
    {
      "type": "Feature",
      "properties": {
        "way_id": "544771983",
        "historical_levels": 19
      },
      "geometry": {
        "type": "Polygon",
        "coordinates": [
          [
            [
              126.9933102,
              37.5050581
            ],
            [
              126.9932941,
              37.5050815
            ],
            [
              126.993251,
              37.5050624
            ],
            [
              126.9932589,
              37.505051
            ],
            [
              126.9932366,
              37.5050411
            ],
            [
              126.9932593,
              37.5050088
            ],
            [
              126.9932359,
              37.5049984
            ],
            [
              126.9932457,
              37.5049844
            ],
            [
              126.9932229,
              37.5049742
            ],
            [
              126.9932134,
              37.5049877
            ],
            [
              126.9931629,
              37.5049653
            ],
            [
              126.9931718,
              37.5049526
            ],
            [
              126.9931389,
              37.504938
            ],
            [
              126.9932105,
              37.5048365
            ],
            [
              126.9932233,
              37.5048183
            ],
            [
              126.9933949,
              37.5048936
            ],
            [
              126.9933329,
              37.5049817
            ],
            [
              126.9933565,
              37.5049922
            ],
            [
              126.9933102,
              37.5050581
            ]
          ]
        ]
      }
    }
  ]
}
