{"type": "Feature", "properties": {"estimated": true, "role": "interpolation convex hull; not Seoul administrative boundary or surveyed validity"}, "geometry": {"type": "Polygon", "coordinates": [[[127.01542394509262, 37.701454292012144], [126.80068686622279, 37.603123038982716], [126.797878934021, 37.59983173411294], [126.76666054700955, 37.55697104499734], [126.76627901295053, 37.55411808035727], [126.81464610575414, 37.474721029079795], [126.81560299058377, 37.47404373927033], [126.81731340449745, 37.47324591402319], [126.90571812185507, 37.43400937296259], [126.9065045445904, 37.433674861280544], [126.90712202040496, 37.43349677062659], [127.05216154536359, 37.42845822415683], [127.0650609193777, 37.42903763045443], [127.06566828641829, 37.42909621131575], [127.07108239272951, 37.43055289797299], [127.13328360406457, 37.46858745576145], [127.14374303969215, 37.47569944149467], [127.14752238068193, 37.47844908042], [127.15851724872479, 37.48966832163208], [127.18374270719451, 37.5454921135625], [127.18171092557003, 37.56049298150649], [127.18152192301439, 37.561658683111084], [127.17711811578889, 37.5803087820409], [127.09588554881378, 37.689109557964166], [127.08118769429836, 37.696080932099854], [127.08103340432552, 37.69613381585531], [127.02730602251204, 37.7010533685334], [127.01542394509262, 37.701454292012144]]]}}
